OBJECT_NAME,OBJECT_ID,EPOCH,MEAN_MOTION,ECCENTRICITY,INCLINATION,RA_OF_ASC_NODE,ARG_OF_PERICENTER,MEAN_ANOMALY,EPHEMERIS_TYPE,CLASSIFICATION_TYPE,NORAD_CAT_ID,ELEMENT_SET_NO,REV_AT_EPOCH,BSTAR,MEAN_MOTION_DOT,MEAN_MOTION_DDOT
SCD 1,1993-009B,2026-07-18T13:30:03.779136,14.46129363,.0042075,24.9707,13.8501,110.0045,302.2246,0,U,22490,999,76566,.29219E-4,.293E-5,0
TECHSAT 1B (GO-32),1998-043D,2026-07-18T21:13:32.425248,14.24433757,.00022928,99.0087,193.4453,109.7408,250.4017,0,U,25397,999,45584,.2046757E-4,.1E-7,0
SCD 2,1998-060A,2026-07-18T19:18:19.971648,14.45535401,.00170029,24.9940,237.1785,97.0700,63.7948,0,U,25504,999,46490,.20366074E-4,.255E-5,0
DLR-TUBSAT,1999-029B,2026-07-18T21:56:08.460384,14.52433681,.00130243,98.6713,196.4648,252.4485,107.5287,0,U,25757,999,43785,.12826254E-4,.4E-7,0
TERRA,1999-068A,2026-07-18T22:15:02.945088,14.61125306,.00035463,97.9438,248.2121,115.4264,290.2725,0,U,25994,999,41424,.40641493E-4,.156E-5,0
MAROC-TUBSAT,2001-056D,2026-07-18T11:10:43.957056,13.70263603,.00205547,99.8101,16.9174,64.0317,325.6217,0,U,27004,999,23047,.6473825E-5,-.41E-6,0
AQUA,2002-022A,2026-07-18T22:42:21.953952,14.62131534,.00012569,98.4299,169.8680,101.7557,333.4935,0,U,27424,999,28791,.7694052E-4,.337E-5,0
SHIYAN-1 (SY-1),2004-012A,2026-07-18T22:44:34.997856,15.34506449,.00042048,97.8677,280.0966,257.1866,102.8906,0,U,28220,999,21596,.19726153E-3,.6506E-4,0
AURA,2004-026A,2026-07-18T21:26:18.047616,14.61370780,.00013724,98.3432,156.6130,93.9929,266.1428,0,U,28376,999,17084,.80067178E-4,.348E-5,0
IRS-P5 (CARTOSAT-1),2005-017A,2026-07-18T19:40:29.087904,14.91122429,.00011528,97.5306,221.4497,51.8210,308.3113,0,U,28649,999,14853,.74079845E-4,.682E-5,0
SINAH 1,2005-043D,2026-07-18T23:14:29.453280,14.64176809,.00146618,98.2899,334.4842,171.8165,188.3279,0,U,28893,999,10517,.3322619E-4,.125E-5,0
RESURS-DK 1,2006-021A,2026-07-18T21:30:01.454688,15.13326509,.00073308,69.9303,257.4641,267.0322,93.0005,0,U,29228,999,10737,.56239114E-4,.895E-5,0
ARIRANG-2 (KOMPSAT-2),2006-031A,2026-07-19T00:13:54.338880,14.64677544,.00139226,97.8315,22.9176,338.5180,178.6827,0,U,29268,999,6613,.62894685E-4,.29E-5,0
LAPAN-TUBSAT,2007-001A,2026-07-18T21:40:10.128864,14.85981000,.00136662,98.1355,199.8442,83.0847,277.1922,0,U,29709,999,5586,.95497722E-4,.778E-5,0
HAIYANG-1B,2007-010A,2026-07-18T21:19:25.667328,14.31033902,.00147596,98.3517,180.5073,105.7218,254.5595,0,U,31113,999,517,.29332531E-4,.36E-6,0
COSMO-SKYMED 1,2007-023A,2026-07-18T21:08:48.319584,14.97231291,.00017087,97.8851,32.0054,99.9562,260.1852,0,U,31598,999,3453,.14831992E-3,.1657E-4,0
TERRASAR-X,2007-026A,2026-07-18T09:55:08.902272,15.19149093,.00018596,97.4454,206.6756,78.4405,281.7038,0,U,31698,999,5796,.11466865E-4,.174E-5,0
WORLDVIEW-1 (WV-1),2007-041A,2026-07-18T22:20:03.160896,15.24582364,.00018924,97.3906,319.2305,190.5118,169.6080,0,U,32060,999,4771,.12914695E-3,.3111E-4,0
YAOGAN-3,2007-055A,2026-07-18T22:35:12.404256,14.90887003,.00014049,97.8139,229.5052,78.7590,281.3786,0,U,32289,999,1060,.41949888E-4,.358E-5,0
COSMO-SKYMED 2,2007-059A,2026-07-18T21:23:02.678208,14.82152094,.00014514,97.8896,23.0305,93.9220,266.2159,0,U,32376,999,670,.26246137E-4,.157E-5,0
RADARSAT-2,2007-061A,2026-07-18T22:40:07.036032,14.29983163,.00013132,98.5783,206.4239,85.1507,274.9826,0,U,32382,999,97049,-.52769499E-4,-.18E-5,0
CARTOSAT-2A,2008-021A,2026-07-18T21:44:53.412864,14.79280034,.0012159,97.7611,247.5297,15.9887,344.1706,0,U,32783,999,98349,.81941788E-4,.56E-5,0
HUANJING 1A (HJ-1A),2008-041A,2026-07-18T22:10:24.834720,14.84055473,.00200896,97.6703,184.5390,38.2434,322.0202,0,U,33320,999,96311,.13119564E-3,.1046E-4,0
HUANJING 1B (HJ-1B),2008-041B,2026-07-18T23:24:01.611360,14.83367514,.00379272,97.6538,187.6633,79.3715,281.1767,0,U,33321,999,96312,.17394757E-4,.92E-6,0
GEOEYE 1,2008-042A,2026-07-18T22:02:53.913984,14.64651045,.00036879,98.1325,273.4709,333.3517,26.7495,0,U,33331,999,95479,.42064572E-4,.176E-5,0
THEOS,2008-049A,2026-07-18T22:56:16.845792,14.20135664,.0001125,98.5550,256.2051,89.9821,270.1485,0,U,33396,999,92247,-.15030915E-3,-.363E-5,0
COSMO-SKYMED 3,2008-054A,2026-07-18T22:43:49.079712,15.07132936,.00160523,97.8246,59.0422,153.8876,206.3164,0,U,33412,999,96172,.1693101E-3,.2485E-4,0
YAOGAN-4,2008-061A,2026-07-18T19:21:24.789024,14.83255048,.00135309,97.9302,133.0847,333.4297,26.6222,0,U,33446,999,95035,.62562389E-4,.458E-5,0
GOSAT (IBUKI),2009-002A,2026-07-18T21:52:11.792640,14.67542148,.0001122,98.0915,310.5988,89.3960,270.7373,0,U,33492,999,93611,.58497521E-4,.284E-5,0
DEIMOS-1,2009-041A,2026-07-18T20:40:11.531712,14.75265381,.0002805,97.7441,355.7217,87.5877,272.5654,0,U,35681,999,91155,.29770457E-4,.154E-5,0
